NORAD_CAT_ID,OBJECT_NAME,OBJECT_TYPE,EPOCH,MEAN_MOTION,ECCENTRICITY,INCLINATION,RA_OF_ASC_NODE,ARG_OF_PERICENTER,MEAN_ANOMALY,BSTAR,MEAN_MOTION_DOT,MEAN_MOTION_DDOT,TLE_LINE0,TLE_LINE1,TLE_LINE2,SEMIMAJOR_AXIS,PERIOD,APOGEE,PERIGEE,DECAYED
52339.0,STARLINK-3792,PAYLOAD,2023-05-20 04:35:11,15.10475853,0.0001061,53.2165,127.9268,79.3682,280.7431,1.9754e-05,3.6e-07,0.0,0 STARLINK-3792,1 52339U 22045J   23140.19109954  .00000036  00000-0  19754-4 0  9992,2 52339  53.2165 127.9268 0001061  79.3682 280.7431 15.10475853 60981,6912.885,95.334,535.483,534.016,0.0
52339.0,STARLINK-3792,PAYLOAD,2023-05-20 15:42:09,15.10480481,0.0001054,53.2164,125.8416,76.7101,283.4009,6.2313e-05,7.45e-06,0.0,0 STARLINK-3792,1 52339U 22045J   23140.65427181  .00000745  00000-0  62313-4 0  9994,2 52339  53.2164 125.8416 0001054  76.7101 283.4009 15.10480481 61054,6912.871,95.334,535.464,534.007,0.0
52339.0,STARLINK-3792,PAYLOAD,2023-05-21 02:49:15,15.10386964,9.58e-05,53.2166,123.7589,115.3393,244.7699,-0.00061448,-0.00010482,0.0,0 STARLINK-3792,1 52339U 22045J   23141.11754323 -.00010482  00000-0 -61448-3 0  9995,2 52339  53.2166 123.7589 0000958 115.3393 244.7699 15.10386964 61123,6913.156,95.34,535.683,534.359,0.0
52339.0,STARLINK-3792,PAYLOAD,2023-05-21 07:35:22,15.10200626,9.68e-05,53.2168,122.8657,82.8968,277.2135,-0.0020655,-0.00034254,0.0,0 STARLINK-3792,1 52339U 22045J   23141.31622794 -.00034254  00000-0 -20655-2 0  9990,2 52339  53.2168 122.8657 0000968  82.8968 277.2135 15.10200626 61157,6913.725,95.352,536.259,534.92,0.0
52339.0,STARLINK-3792,PAYLOAD,2023-05-21 13:56:42,15.10082832,8.81e-05,53.2169,121.6757,119.4084,240.6996,-0.0028714,-0.00047266,0.0,0 STARLINK-3792,1 52339U 22045J   23141.58104729 -.00047266  00000-0 -28714-2 0  9993,2 52339  53.2169 121.6757 0000881 119.4084 240.6996 15.10082832 61196,6914.084,95.359,536.558,535.34,0.0
52339.0,STARLINK-3792,PAYLOAD,2023-05-21 15:32:07,15.09993765,0.0001065,53.2171,121.38,87.2186,272.8928,-0.0035442,-0.00058043,0.0,0 STARLINK-3792,1 52339U 22045J   23141.64730759 -.00058043  00000-0 -35442-2 0  9999,2 52339  53.2171 121.3800 0001065  87.2186 272.8928 15.09993765 61203,6914.356,95.365,536.957,535.485,0.0
52339.0,STARLINK-3792,PAYLOAD,2023-05-22 10:36:31,15.09504514,0.0001363,53.2167,117.8088,108.1759,251.9382,-0.0066127,-0.00105895,0.0,0 STARLINK-3792,1 52339U 22045J   23142.44203607 -.00105895  00000-0 -66127-2 0  9997,2 52339  53.2167 117.8088 0001363 108.1759 251.9382 15.09504514 61321,6915.85,95.396,538.658,536.772,0.0
52339.0,STARLINK-3792,PAYLOAD,2023-05-22 12:11:56,15.09432781,0.0001442,53.2168,117.5121,137.7624,222.348,-0.0071292,-0.00113794,0.0,0 STARLINK-3792,1 52339U 22045J   23142.50829766 -.00113794  00000-0 -71292-2 0  9990,2 52339  53.2168 117.5121 0001442 137.7624 222.3480 15.09432781 61332,6916.069,95.4,538.931,536.937,0.0
52339.0,STARLINK-3792,PAYLOAD,2023-05-22 22:00:00,15.08825854,0.0001368,53.2156,115.6747,91.8344,329.4842,0.0018496,0.0002926,0.0,0 STARLINK-3792,1 52339U 22045J   23142.91667824  .00029260  00000-0  18496-2 0  9999,2 52339  53.2156 115.6747 0001368  91.8344 329.4842 15.08825854 61391,6917.924,95.438,540.735,538.842,0.0
52339.0,STARLINK-3792,PAYLOAD,2023-05-23 14:00:01,15.08839813,0.0001352,53.2155,112.683,81.9065,2.5804,-0.0015443,-0.00024781,0.0,0 STARLINK-3792,1 52339U 22045J   23143.58334491 -.00024781  00000-0 -15443-2 0  9998,2 52339  53.2155 112.6830 0001352  81.9065   2.5804 15.08839813 61491,6917.881,95.438,540.681,538.811,0.0
52339.0,STARLINK-3792,PAYLOAD,2023-05-23 22:00:00,15.08834623,0.0001402,53.2157,111.1859,89.4368,6.6377,0.0015497,0.00024458,0.0,0 STARLINK-3792,1 52339U 22045J   23143.91667824  .00024458  00000-0  15497-2 0  9992,2 52339  53.2157 111.1859 0001402  89.4368   6.6377 15.08834623  1301,6917.897,95.438,540.732,538.792,0.0
52339.0,STARLINK-3792,PAYLOAD,2023-05-24 06:00:00,15.08838727,0.0001409,53.2171,109.6904,71.824,35.8489,-0.00023142,-3.969e-05,0.0,0 STARLINK-3792,1 52339U 22045J   23144.25001157 -.00003969  00000-0 -23142-3 0  9994,2 52339  53.2171 109.6904 0001409  71.8240  35.8489 15.08838727 61595,6917.884,95.438,540.724,538.775,0.0
52339.0,STARLINK-3792,PAYLOAD,2023-05-24 22:00:00,15.08842714,0.0001432,53.2161,106.6969,91.3211,39.5241,0.0010704,0.0001679,0.0,0 STARLINK-3792,1 52339U 22045J   23144.91667824  .00016790  00000-0  10704-2 0  9999,2 52339  53.2161 106.6969 0001432  91.3211  39.5241 15.08842714  1304,6917.872,95.437,540.728,538.746,0.0
52339.0,STARLINK-3792,PAYLOAD,2023-05-25 14:00:01,15.0884542,0.000131,53.2163,103.7048,88.3629,65.6857,-0.00098567,-0.00015943,0.0,0 STARLINK-3792,1 52339U 22045J   23145.58334491 -.00015943  00000-0 -98567-3 0  9999,2 52339  53.2163 103.7048 0001310  88.3629  65.6857 15.08845420 61795,6917.864,95.437,540.635,538.823,0.0
52339.0,STARLINK-3792,PAYLOAD,2023-05-26 00:00:02,15.08871399,0.0001357,53.2165,101.8344,89.7075,168.8916,-0.0026193,-0.00041768,0.0,0 STARLINK-3792,1 52339U 22045J   23146.00002315 -.00041768  00000-0 -26193-2 0  9993,2 52339  53.2165 101.8344 0001357  89.7075 168.8916 15.08871399  1303,6917.784,95.436,540.588,538.711,0.0
52339.0,STARLINK-3792,PAYLOAD,2023-05-26 03:37:41,15.0884416,0.0001424,53.2172,101.1538,91.3371,268.7784,7.2372e-05,8.64e-06,0.0,0 STARLINK-3792,1 52339U 22045J   23146.15117686  .00000864  00000-0  72372-4 0  9999,2 52339  53.2172 101.1538 0001424  91.3371 268.7784 15.08844160 61880,6917.868,95.437,540.718,538.748,0.0
52339.0,STARLINK-3792,PAYLOAD,2023-05-26 06:48:27,15.08844132,0.0001434,53.2173,100.5593,91.2167,268.8989,7.0842e-05,8.4e-06,0.0,0 STARLINK-3792,1 52339U 22045J   23146.28365664  .00000840  00000-0  70842-4 0  9998,2 52339  53.2173 100.5593 0001434  91.2167 268.8989 15.08844132 61908,6917.868,95.437,540.725,538.741,0.0
52339.0,STARLINK-3792,PAYLOAD,2023-05-26 21:06:57,15.08832347,0.0001443,53.2163,97.8824,93.75,266.3658,-3.1975e-05,-7.97e-06,0.0,0 STARLINK-3792,1 52339U 22045J   23146.87982766 -.00000797  00000-0 -31975-4 0  9998,2 52339  53.2163  97.8824 0001443  93.7500 266.3658 15.08832347 61990,6917.904,95.438,540.767,538.771,0.0
52339.0,STARLINK-3792,PAYLOAD,2023-05-27 03:28:29,15.08831857,0.0001414,53.2167,96.6933,92.4401,267.6753,-4.2491e-05,-9.64e-06,0.0,0 STARLINK-3792,1 52339U 22045J   23147.14478904 -.00000964  00000-0 -42491-4 0  9994,2 52339  53.2167  96.6933 0001414  92.4401 267.6753 15.08831857 62037,6917.905,95.438,540.748,538.792,0.0
52339.0,STARLINK-3792,PAYLOAD,2023-05-27 13:00:48,15.08836225,0.0001446,53.2178,94.9115,89.4709,270.6449,-1.7261e-05,-5.63e-06,0.0,0 STARLINK-3792,1 52339U 22045J   23147.54222703 -.00000563  00000-0 -17261-4 0  9994,2 52339  53.2178  94.9115 0001446  89.4709 270.6449 15.08836225 62090,6917.892,95.438,540.757,538.757,0.0
52339.0,STARLINK-3792,PAYLOAD,2023-05-28 03:19:15,15.08844553,0.0001332,53.2172,92.2351,82.9092,277.2052,6.7021e-05,7.79e-06,0.0,0 STARLINK-3792,1 52339U 22045J   23148.13837901  .00000779  00000-0  67021-4 0  9998,2 52339  53.2172  92.2351 0001332  82.9092 277.2052 15.08844553 62180,6917.866,95.437,540.653,538.81,0.0
52339.0,STARLINK-3792,PAYLOAD,2023-05-29 03:10:03,15.08846995,0.0001091,53.2163,87.7752,77.1321,282.9793,-4.7855e-05,-1.049e-05,0.0,0 STARLINK-3792,1 52339U 22045J   23149.13198246 -.00001049  00000-0 -47855-4 0  9997,2 52339  53.2163  87.7752 0001091  77.1321 282.9793 15.08846995 62331,6917.859,95.437,540.479,538.969,0.0
52339.0,STARLINK-3792,PAYLOAD,2023-05-29 04:45:26,15.08838892,0.0001229,53.2176,87.4778,79.9412,280.1719,0.00010605,1.4e-05,0.0,0 STARLINK-3792,1 52339U 22045J   23149.19822324  .00001400  00000-0  10605-3 0  9995,2 52339  53.2176  87.4778 0001229  79.9412 280.1719 15.08838892 62340,6917.884,95.438,540.599,538.899,0.0
52339.0,STARLINK-3792,PAYLOAD,2023-05-30 03:00:51,15.08834539,0.0001343,53.2185,83.3152,91.902,268.2126,-4.1104e-05,-9.42e-06,0.0,0 STARLINK-3792,1 52339U 22045J   23150.12559315 -.00000942  00000-0 -41104-4 0  9998,2 52339  53.2185  83.3152 0001343  91.9020 268.2126 15.08834539 62485,6917.897,95.438,540.691,538.833,0.0
52339.0,STARLINK-3792,PAYLOAD,2023-05-30 18:54:42,15.08842681,0.0001274,53.2187,80.3385,85.087,275.0268,-3.2696e-05,-8.08e-06,0.0,0 STARLINK-3792,1 52339U 22045J   23150.78799018 -.00000808  00000-0 -32696-4 0  9993,2 52339  53.2187  80.3385 0001274  85.0870 275.0268 15.08842681 62583,6917.872,95.437,540.619,538.856,0.0
52339.0,STARLINK-3792,PAYLOAD,2023-05-31 04:27:00,15.08847604,0.000135,53.2185,78.5565,100.9553,259.1591,9.985e-05,1.302e-05,0.0,0 STARLINK-3792,1 52339U 22045J   23151.18542101  .00001302  00000-0  99850-4 0  9990,2 52339  53.2185  78.5565 0001350 100.9553 259.1591 15.08847604 62649,6917.857,95.437,540.656,538.788,0.0
52339.0,STARLINK-3792,PAYLOAD,2023-05-31 18:45:29,15.0883704,0.0001305,53.2182,75.878,126.5252,233.586,3.2838e-05,2.35e-06,0.0,0 STARLINK-3792,1 52339U 22045J   23151.78158872  .00000235  00000-0  32838-4 0  9991,2 52339  53.2182  75.8780 0001305 126.5252 233.5860 15.08837040 62733,6917.889,95.438,540.657,538.852,0.0
52339.0,STARLINK-3792,PAYLOAD,2023-06-01 04:17:47,15.08845288,0.0001234,53.2175,74.0953,108.1703,251.9424,9.2452e-05,1.184e-05,0.0,0 STARLINK-3792,1 52339U 22045J   23152.17902237  .00001184  00000-0  92452-4 0  9999,2 52339  53.2175  74.0953 0001234 108.1703 251.9424 15.08845288 62795,6917.864,95.437,540.583,538.876,0.0
52339.0,STARLINK-3792,PAYLOAD,2023-06-02 00:57:48,15.08843569,0.0001363,53.2187,70.2258,116.4032,243.71,-6.6179e-05,-1.341e-05,0.0,0 STARLINK-3792,1 52339U 22045J   23153.04014861 -.00001341  00000-0 -66179-4 0  9997,2 52339  53.2187  70.2258 0001363 116.4032 243.7100 15.08843569 62929,6917.869,95.437,540.677,538.792,0.0
52339.0,STARLINK-3792,PAYLOAD,2023-06-02 04:08:34,15.08844879,0.0001268,53.2179,69.6347,99.0348,261.0787,1.5033e-05,-4.9e-07,0.0,0 STARLINK-3792,1 52339U 22045J   23153.17262566 -.00000049  00000-0  15033-4 0  9994,2 52339  53.2179  69.6347 0001268  99.0348 261.0787 15.08844879 62942,6917.865,95.437,540.608,538.853,0.0
